NORAD_CAT_ID,OBJECT_NAME,OBJECT_TYPE,EPOCH,MEAN_MOTION,ECCENTRICITY,INCLINATION,RA_OF_ASC_NODE,ARG_OF_PERICENTER,MEAN_ANOMALY,BSTAR,MEAN_MOTION_DOT,MEAN_MOTION_DDOT,TLE_LINE0,TLE_LINE1,TLE_LINE2,SEMIMAJOR_AXIS,PERIOD,APOGEE,PERIGEE,DECAYED
53424.0,STARLINK-4532,PAYLOAD,2024-02-29 14:49:23,15.08841542,0.0001439,53.2163,191.9444,102.0392,258.0762,5.666e-05,6.14e-06,0.0,0 STARLINK-4532,1 53424U 22097AN  24060.61762979  .00000614  00000-0  56660-4 0  9995,2 53424  53.2163 191.9444 0001439 102.0392 258.0762 15.08841542 87076,6917.876,95.437,540.736,538.745,0.0
53424.0,STARLINK-4532,PAYLOAD,2024-02-29 16:24:46,15.08845688,0.0001312,53.2169,191.6481,89.8251,270.2891,7.605e-05,9.23e-06,0.0,0 STARLINK-4532,1 53424U 22097AN  24060.68386718  .00000923  00000-0  76050-4 0  9993,2 53424  53.2169 191.6481 0001312  89.8251 270.2891 15.08845688 87081,6917.863,95.437,540.636,538.82,0.0
53424.0,STARLINK-4532,PAYLOAD,2024-03-01 14:40:09,15.0884748,0.0001298,53.2172,187.4862,90.2106,269.9035,2.6991e-05,1.42e-06,0.0,0 STARLINK-4532,1 53424U 22097AN  24061.61122635  .00000142  00000-0  26991-4 0  9995,2 53424  53.2172 187.4862 0001298  90.2106 269.9035 15.08847480 87222,6917.858,95.437,540.62,538.825,0.0
53424.0,STARLINK-4532,PAYLOAD,2024-03-02 11:20:11,15.08837496,0.000134,53.2187,183.6202,90.2484,269.8661,-3.5928e-05,-8.6e-06,0.0,0 STARLINK-4532,1 53424U 22097AN  24062.47235498 -.00000860  00000-0 -35928-4 0  9991,2 53424  53.2187 183.6202 0001340  90.2484 269.8661 15.08837496 86871,6917.888,95.438,540.68,538.826,0.0
53424.0,STARLINK-4532,PAYLOAD,2024-03-02 14:30:57,15.0883692,0.0001327,53.2175,183.026,87.3532,272.7612,-5.7162e-06,-3.79e-06,0.0,0 STARLINK-4532,1 53424U 22097AN  24062.60483411 -.00000379  00000-0 -57162-5 0  9996,2 53424  53.2175 183.0260 0001327  87.3532 272.7612 15.08836920 87378,6917.89,95.438,540.673,538.837,0.0
53424.0,STARLINK-4532,PAYLOAD,2024-03-03 11:10:58,15.08843486,0.000133,53.217,179.1575,92.3287,267.7857,1.8957e-05,1.4e-07,0.0,0 STARLINK-4532,1 53424U 22097AN  24063.46594953  .00000014  00000-0  18957-4 0  9997,2 53424  53.2170 179.1575 0001330  92.3287 267.7857 15.08843486 87027,6917.87,95.437,540.655,538.815,0.0
53424.0,STARLINK-4532,PAYLOAD,2024-03-03 12:46:21,15.08844222,0.0001348,53.2169,178.8603,88.9383,271.1764,2.8079e-05,1.59e-06,0.0,0 STARLINK-4532,1 53424U 22097AN  24063.53218877  .00000159  00000-0  28079-4 0  9999,2 53424  53.2169 178.8603 0001348  88.9383 271.1764 15.08844222 87519,6917.867,95.437,540.665,538.8,0.0
53424.0,STARLINK-4532,PAYLOAD,2024-03-04 11:01:44,15.08848731,0.0001339,53.2169,174.6984,87.8679,272.2466,0.0001444,2.011e-05,0.0,0 STARLINK-4532,1 53424U 22097AN  24064.45953992  .00002011  00000-0  14440-3 0  9990,2 53424  53.2169 174.6984 0001339  87.8679 272.2466 15.08848731 87173,6917.854,95.437,540.645,538.792,0.0
53424.0,STARLINK-4532,PAYLOAD,2024-03-04 14:12:30,15.08852641,0.0001499,53.2178,174.1037,97.2416,262.8747,0.00018711,2.692e-05,0.0,0 STARLINK-4532,1 53424U 22097AN  24064.59201550  .00002692  00000-0  18711-3 0  9991,2 53424  53.2178 174.1037 0001499  97.2416 262.8747 15.08852641 87675,6917.842,95.437,540.744,538.67,0.0
53424.0,STARLINK-4532,PAYLOAD,2024-03-05 12:27:56,15.08821944,0.0001474,53.2181,169.9396,87.4861,272.63,-0.00018268,-3.193e-05,0.0,0 STARLINK-4532,1 53424U 22097AN  24065.51940835 -.00003193  00000-0 -18268-3 0  9996,2 53424  53.2181 169.9396 0001474  87.4861 272.6300 15.08821944 87819,6917.936,95.439,540.82,538.781,0.0
53424.0,STARLINK-4532,PAYLOAD,2024-03-05 14:03:20,15.08822858,0.00014,53.2174,169.6427,72.5102,287.6043,-0.00016414,-2.898e-05,0.0,0 STARLINK-4532,1 53424U 22097AN  24065.58564832 -.00002898  00000-0 -16414-3 0  9994,2 53424  53.2174 169.6427 0001400  72.5102 287.6043 15.08822858 87348,6917.933,95.439,540.766,538.829,0.0
53424.0,STARLINK-4532,PAYLOAD,2024-03-06 10:43:19,15.08844896,0.0001356,53.2171,165.7755,71.2637,288.8502,-7.1438e-05,-1.425e-05,0.0,0 STARLINK-4532,1 53424U 22097AN  24066.44675601 -.00001425  00000-0 -71438-4 0  9990,2 53424  53.2171 165.7755 0001356  71.2637 288.8502 15.08844896 87478,6917.865,95.437,540.668,538.792,0.0
53424.0,STARLINK-4532,PAYLOAD,2024-03-06 13:54:05,15.08842921,0.0001638,53.2182,165.1822,67.9793,292.1373,9.1513e-05,1.169e-05,0.0,0 STARLINK-4532,1 53424U 22097AN  24066.57923321  .00001169  00000-0  91513-4 0  9998,2 53424  53.2182 165.1822 0001638  67.9793 292.1373 15.08842921 87973,6917.871,95.437,540.87,538.603,0.0
53424.0,STARLINK-4532,PAYLOAD,2024-03-06 23:26:24,15.08832987,0.000132,53.2165,163.3977,79.1245,280.9896,-9.9881e-05,-1.877e-05,0.0,0 STARLINK-4532,1 53424U 22097AN  24066.97667740 -.00001877  00000-0 -99881-4 0  9996,2 53424  53.2165 163.3977 0001320  79.1245 280.9896 15.08832987 87550,6917.902,95.438,540.68,538.854,0.0
53424.0,STARLINK-4532,PAYLOAD,2024-03-07 13:44:53,15.08831461,0.0001551,53.2169,160.722,67.0377,293.0779,0.00030539,4.575e-05,0.0,0 STARLINK-4532,1 53424U 22097AN  24067.57284669  .00004575  00000-0  30539-3 0  9998,2 53424  53.2169 160.7220 0001551  67.0377 293.0779 15.08831461 88129,6917.906,95.438,540.844,538.699,0.0
53424.0,STARLINK-4532,PAYLOAD,2024-03-08 12:00:17,15.08844709,0.0001451,53.2162,156.5581,77.2456,282.8698,3.2735e-05,2.33e-06,0.0,0 STARLINK-4532,1 53424U 22097AN  24068.50020210  .00000233  00000-0  32735-4 0  9990,2 53424  53.2162 156.5581 0001451  77.2456 282.8698 15.08844709 87781,6917.866,95.437,540.735,538.727,0.0
53424.0,STARLINK-4532,PAYLOAD,2024-03-09 11:51:04,15.08840284,0.000171,53.2166,152.0973,81.5126,278.606,1.2397e-05,-9.1e-07,0.0,0 STARLINK-4532,1 53424U 22097AN  24069.49380592 -.00000091  00000-0  12397-4 0  9996,2 53424  53.2166 152.0973 0001710  81.5126 278.6060 15.08840284 87938,6917.88,95.438,540.927,538.562,0.0
53424.0,STARLINK-4532,PAYLOAD,2024-03-10 11:41:51,15.0884152,0.0001571,53.2172,147.6368,90.9789,269.1383,7.429e-05,8.95e-06,0.0,0 STARLINK-4532,1 53424U 22097AN  24070.48740361  .00000895  00000-0  74290-4 0  9992,2 53424  53.2172 147.6368 0001571  90.9789 269.1383 15.08841520 88564,6917.876,95.437,540.828,538.654,0.0
53424.0,STARLINK-4532,PAYLOAD,2024-03-10 14:52:37,15.08842947,0.0001588,53.2174,147.042,92.4492,267.6682,9.1578e-05,1.17e-05,0.0,0 STARLINK-4532,1 53424U 22097AN  24070.61988275  .00001170  00000-0  91578-4 0  9990,2 53424  53.2174 147.0420 0001588  92.4492 267.6682 15.08842947 88104,6917.871,95.437,540.835,538.638,0.0
53424.0,STARLINK-4532,PAYLOAD,2024-03-11 11:32:38,15.08838358,0.0001383,53.2163,143.1765,92.1263,267.9888,0.00013936,1.931e-05,0.0,0 STARLINK-4532,1 53424U 22097AN  24071.48100489  .00001931  00000-0  13936-3 0  9995,2 53424  53.2163 143.1765 0001383  92.1263 267.9888 15.08838358 88233,6917.885,95.438,540.707,538.794,0.0
53424.0,STARLINK-4532,PAYLOAD,2024-03-12 20:55:44,15.08848208,0.0001384,53.2171,136.9328,90.4207,269.6943,0.00011698,1.575e-05,0.0,0 STARLINK-4532,1 53424U 22097AN  24072.87203833  .00001575  00000-0  11698-3 0  9993,2 53424  53.2171 136.9328 0001384  90.4207 269.6943 15.08848208 88929,6917.855,95.437,540.678,538.763,0.0
53424.0,STARLINK-4532,PAYLOAD,2024-03-13 03:17:17,15.08841732,0.0001455,53.2185,135.7469,85.1109,275.0049,0.00011987,1.62e-05,0.0,0 STARLINK-4532,1 53424U 22097AN  24073.13700344  .00001620  00000-0  11987-3 0  9994,2 53424  53.2185 135.7469 0001455  85.1109 275.0049 15.08841732 88482,6917.875,95.437,540.747,538.734,0.0
53424.0,STARLINK-4532,PAYLOAD,2024-03-13 11:14:13,15.08834958,0.0001474,53.2185,134.2593,94.7467,265.3693,5.9189e-05,6.54e-06,0.0,0 STARLINK-4532,1 53424U 22097AN  24073.46820840  .00000654  00000-0  59189-4 0  9997,2 53424  53.2185 134.2593 0001474  94.7467 265.3693 15.08834958 88533,6917.896,95.438,540.78,538.741,0.0
53424.0,STARLINK-4532,PAYLOAD,2024-03-13 20:46:31,15.08844963,0.0001513,53.2176,132.474,93.8435,266.273,0.00010626,1.404e-05,0.0,0 STARLINK-4532,1 53424U 22097AN  24073.86564089  .00001404  00000-0  10626-3 0  9997,2 53424  53.2176 132.4740 0001513  93.8435 266.2730 15.08844963 88591,6917.865,95.437,540.777,538.684,0.0
53424.0,STARLINK-4532,PAYLOAD,2024-03-14 12:40:23,15.08840247,0.0001608,53.2177,129.501,93.2541,266.8635,9.4773e-05,1.221e-05,0.0,0 STARLINK-4532,1 53424U 22097AN  24074.52804470  .00001221  00000-0  94773-4 0  9995,2 53424  53.2177 129.5010 0001608  93.2541 266.8635 15.08840247 88698,6917.88,95.438,540.857,538.632,0.0
53424.0,STARLINK-4532,PAYLOAD,2024-03-15 10:55:47,15.08838434,0.0001484,53.217,125.3356,90.9991,269.1171,3.8642e-05,3.27e-06,0.0,0 STARLINK-4532,1 53424U 22097AN  24075.45540721  .00000327  00000-0  38642-4 0  9993,2 53424  53.2170 125.3356 0001484  90.9991 269.1171 15.08838434 89319,6917.885,95.438,540.777,538.724,0.0
53424.0,STARLINK-4532,PAYLOAD,2024-03-16 10:46:34,15.08840916,0.0001404,53.2163,120.8743,98.4741,261.641,2.8719e-05,1.69e-06,0.0,0 STARLINK-4532,1 53424U 22097AN  24076.44900643  .00000169  00000-0  28719-4 0  9994,2 53424  53.2163 120.8743 0001404  98.4741 261.6410 15.08840916 89466,6917.878,95.437,540.714,538.771,0.0
53424.0,STARLINK-4532,PAYLOAD,2024-03-17 02:40:25,15.08836341,0.0001466,53.2165,117.9024,84.6536,275.4623,7.7837e-05,9.51e-06,0.0,0 STARLINK-4532,1 53424U 22097AN  24077.11140950  .00000951  00000-0  77837-4 0  9990,2 53424  53.2165 117.9024 0001466  84.6536 275.4623 15.08836341 89088,6917.892,95.438,540.771,538.742,0.0
53424.0,STARLINK-4532,PAYLOAD,2024-03-17 09:01:58,15.08837514,0.0001507,53.2161,116.7125,83.8529,276.2635,8.532e-05,1.07e-05,0.0,0 STARLINK-4532,1 53424U 22097AN  24077.37636929  .00001070  00000-0  85320-4 0  9993,2 53424  53.2161 116.7125 0001507  83.8529 276.2635 15.08837514 89605,6917.888,95.438,540.796,538.71,0.0
53424.0,STARLINK-4532,PAYLOAD,2024-03-18 02:31:12,15.08844013,0.0001458,53.2159,113.4402,92.3313,267.7846,0.00011262,1.505e-05,0.0,0 STARLINK-4532,1 53424U 22097AN  24078.10500344  .00001505  00000-0  11262-3 0  9992,2 53424  53.2159 113.4402 0001458  92.3313 267.7846 15.08844013 89235,6917.868,95.437,540.742,538.724,0.0
